
# Worst residual: 11.74 km
# MJD 57910.000000 (2017 Jun  6  0:00)
2012-003B = NORAD 38071 = Delta 358 booster
1 38071U 12003B   17157.49919926  .00000000  00000-0  00000-0 0    08
2 38071 022.9954 324.9100 8191848 047.6968 238.0682 01.15532902    07

# Worst residual: 12.76 km
# MJD 57911.000000 (2017 Jun  7  0:00)
2012-003B = NORAD 38071 = Delta 358 booster
1 38071U 12003B   17158.49919926  .00000000  00000-0  00000-0 0    09
2 38071 022.9912 324.7401 8191279 047.9877 293.9677 01.15535867    00

# Worst residual: 11.54 km
# MJD 57912.000000 (2017 Jun  8  0:00)
2012-003B = NORAD 38071 = Delta 358 booster
1 38071U 12003B   17159.49919926  .00000000  00000-0  00000-0 0    00
2 38071 022.9859 324.5721 8190726 048.2730 349.8754 01.15543470    07

# Worst residual: 11.44 km
# MJD 57913.000000 (2017 Jun  9  0:00)
2012-003B = NORAD 38071 = Delta 358 booster
1 38071U 12003B   17160.49919926  .00000000  00000-0  00000-0 0    02
2 38071 022.9799 324.3999 8190491 048.5600 045.7824 01.15545427    07

# Worst residual: 12.97 km
# MJD 57914.000000 (2017 Jun 10  0:00)
2012-003B = NORAD 38071 = Delta 358 booster
1 38071U 12003B   17161.49919926  .00000000  00000-0  00000-0 0    03
2 38071 022.9760 324.2327 8190516 048.8417 101.6923 01.15539258    03

# Worst residual: 13.21 km
# MJD 57915.000000 (2017 Jun 11  0:00)
2012-003B = NORAD 38071 = Delta 358 booster
1 38071U 12003B   17162.49919926  .00000000  00000-0  00000-0 0    04
2 38071 022.9734 324.0674 8190685 049.1246 157.5978 01.15534550    08

# Worst residual: 12.50 km
# MJD 57916.000000 (2017 Jun 12  0:00)
2012-003B = NORAD 38071 = Delta 358 booster
1 38071U 12003B   17163.49919926  .00000000  00000-0  00000-0 0    05
2 38071 022.9661 323.8907 8190605 049.4220 213.4893 01.15533291    09

# Worst residual: 12.23 km
# MJD 57917.000000 (2017 Jun 13  0:00)
2012-003B = NORAD 38071 = Delta 358 booster
1 38071U 12003B   17164.49919926  .00000000  00000-0  00000-0 0    06
2 38071 022.9594 323.7143 8190866 049.7188 269.3877 01.15537669    05

# Worst residual: 11.81 km
# MJD 57918.000000 (2017 Jun 14  0:00)
2012-003B = NORAD 38071 = Delta 358 booster
1 38071U 12003B   17165.49919926  .00000000  00000-0  00000-0 0    07
2 38071 022.9552 323.5476 8190639 050.0075 325.2780 01.15542053    02

# Worst residual: 11.28 km
# MJD 57919.000000 (2017 Jun 15  0:00)
2012-003B = NORAD 38071 = Delta 358 booster
1 38071U 12003B   17166.49919926  .00000000  00000-0  00000-0 0    08
2 38071 022.9506 323.3805 8190174 050.2913 021.1847 01.15546030    07

# Worst residual: 12.03 km
# MJD 57920.000000 (2017 Jun 16  0:00)
2012-003B = NORAD 38071 = Delta 358 booster
1 38071U 12003B   17167.49919926  .00000000  00000-0  00000-0 0    09
2 38071 022.9453 323.2084 8190233 050.5785 077.0924 01.15541005    05

# Worst residual: 12.26 km
# MJD 57921.000000 (2017 Jun 17  0:00)
2012-003B = NORAD 38071 = Delta 358 booster
1 38071U 12003B   17168.49919926  .00000000  00000-0  00000-0 0    00
2 38071 022.9437 323.0438 8190200 050.8639 132.9853 01.15536775    03

# Worst residual: 11.69 km
# MJD 57922.000000 (2017 Jun 18  0:00)
2012-003B = NORAD 38071 = Delta 358 booster
1 38071U 12003B   17169.49919926  .00000000  00000-0  00000-0 0    01
2 38071 022.9411 322.8801 8189863 051.1481 188.8854 01.15532380    07

# Worst residual: 11.57 km
# MJD 57923.000000 (2017 Jun 19  0:00)
2012-003B = NORAD 38071 = Delta 358 booster
1 38071U 12003B   17170.49919926  .00000000  00000-0  00000-0 0    03
2 38071 022.9341 322.7004 8190092 051.4491 244.7745 01.15533104    09

# Worst residual: 12.02 km
# MJD 57924.000000 (2017 Jun 20  0:00)
2012-003B = NORAD 38071 = Delta 358 booster
1 38071U 12003B   17171.49919926  .00000000  00000-0  00000-0 0    04
2 38071 022.9306 322.5344 8190088 051.7368 300.6712 01.15537375    06

# Worst residual: 10.35 km
# MJD 57925.000000 (2017 Jun 21  0:00)
2012-003B = NORAD 38071 = Delta 358 booster
1 38071U 12003B   17172.49919926  .00000000  00000-0  00000-0 0    05
2 38071 022.9240 322.3623 8189980 052.0291 356.5649 01.15545355    05

# Worst residual: 11.52 km
# MJD 57926.000000 (2017 Jun 22  0:00)
2012-003B = NORAD 38071 = Delta 358 booster
1 38071U 12003B   17173.49919926  .00000000  00000-0  00000-0 0    06
2 38071 022.9187 322.1909 8189673 052.3198 052.4562 01.15545088    07

# Worst residual: 12.43 km
# MJD 57927.000000 (2017 Jun 23  0:00)
2012-003B = NORAD 38071 = Delta 358 booster
1 38071U 12003B   17174.49919926  .00000000  00000-0  00000-0 0    07
2 38071 022.9138 322.0185 8189561 052.6100 108.3518 01.15538183    00

# Worst residual: 12.79 km
# MJD 57928.000000 (2017 Jun 24  0:00)
2012-003B = NORAD 38071 = Delta 358 booster
1 38071U 12003B   17175.49919926  .00000000  00000-0  00000-0 0    08
2 38071 022.9101 321.8491 8189314 052.8998 164.2423 01.15534637    06

# Worst residual: 12.70 km
# MJD 57929.000000 (2017 Jun 25  0:00)
2012-003B = NORAD 38071 = Delta 358 booster
1 38071U 12003B   17176.49919926  .00000000  00000-0  00000-0 0    09
2 38071 022.9026 321.6701 8188690 053.1984 220.1297 01.15534331    01

# Worst residual: 12.06 km
# MJD 57930.000000 (2017 Jun 26  0:00)
2012-003B = NORAD 38071 = Delta 358 booster
1 38071U 12003B   17177.49919926  .00000000  00000-0  00000-0 0    00
2 38071 022.8955 321.4910 8188780 053.4950 276.0271 01.15538270    05

# Worst residual: 12.13 km
# MJD 57931.000000 (2017 Jun 27  0:00)
2012-003B = NORAD 38071 = Delta 358 booster
1 38071U 12003B   17178.49919926  .00000000  00000-0  00000-0 0    01
2 38071 022.8913 321.3259 8188549 053.7775 331.9259 01.15542879    02

# Worst residual: 11.44 km
# MJD 57932.000000 (2017 Jun 28  0:00)
2012-003B = NORAD 38071 = Delta 358 booster
1 38071U 12003B   17179.49919926  .00000000  00000-0  00000-0 0    02
2 38071 022.8838 321.1504 8188724 054.0661 027.8353 01.15544735    01

# Worst residual: 12.29 km
# MJD 57933.000000 (2017 Jun 29  0:00)
2012-003B = NORAD 38071 = Delta 358 booster
1 38071U 12003B   17180.49919926  .00000000  00000-0  00000-0 0    04
2 38071 022.8751 320.9660 8189451 054.3667 083.7315 01.15538088    05

# Worst residual: 13.18 km
# MJD 57934.000000 (2017 Jun 30  0:00)
2012-003B = NORAD 38071 = Delta 358 booster
1 38071U 12003B   17181.49919926  .00000000  00000-0  00000-0 0    05
2 38071 022.8701 320.7918 8189705 054.6624 139.6202 01.15532836    03

# Worst residual: 12.07 km
# MJD 57935.000000 (2017 Jul  1  0:00)
2012-003B = NORAD 38071 = Delta 358 booster
1 38071U 12003B   17182.49919926  .00000000  00000-0  00000-0 0    06
2 38071 022.8622 320.6086 8189459 054.9679 195.5080 01.15527484    07
